[
  {
    "CCSDS_OMM_VERS": "2.0",
    "COMMENT": "GENERATED VIA SPACE-TRACK.ORG API",
    "CREATION_DATE": "2021-12-03T17:32:05",
    "ORIGINATOR": "18 SPCS",
    "OBJECT_NAME": "RELAY 1 (A-15)",
    "OBJECT_ID": "1962-068A",
    "CENTER_NAME": "EARTH",
    "REF_FRAME": "TEME",
    "TIME_SYSTEM": "UTC",
    "MEAN_ELEMENT_THEORY": "SGP4",
    "EPOCH": "2021-12-03T03:28:37.605216",
    "MEAN_MOTION": "7.78159121",
    "ECCENTRICITY": "0.28478890",
    "INCLINATION": "47.5219",
    "RA_OF_ASC_NODE": "25.7233",
    "ARG_OF_PERICENTER": "9.0079",
    "MEAN_ANOMALY": "10.1993",
    "EPHEMERIS_TYPE": "0",
    "CLASSIFICATION_TYPE": "U",
    "NORAD_CAT_ID": "503",
    "ELEMENT_SET_NO": "999",
    "REV_AT_EPOCH": "67648",
    "BSTAR": "0.00000000000000",
    "MEAN_MOTION_DOT": "-0.00000026",
    "MEAN_MOTION_DDOT": "0.0000000000000",
    "SEMIMAJOR_AXIS": "10756.960",
    "PERIOD": "185.052",
    "APOAPSIS": "7442.288",
    "PERIAPSIS": "1315.362",
    "OBJECT_TYPE": "PAYLOAD",
    "RCS_SIZE": "MEDIUM",
    "COUNTRY_CODE": "US",
    "LAUNCH_DATE": "1962-12-13",
    "SITE": "AFETR",
    "DECAY_DATE": null,
    "FILE": "3231740",
    "GP_ID": "190991353",
    "TLE_LINE0": "0 RELAY 1 (A-15)",
    "TLE_LINE1": "1 00503U 62068A   21337.14487969 -.00000026  00000-0  00000-0 0  9993",
    "TLE_LINE2": "2 00503  47.5219  25.7233 2847889   9.0079  10.1993  7.78159121676486"
  },
  {
    "CCSDS_OMM_VERS": "2.0",
    "COMMENT": "GENERATED VIA SPACE-TRACK.ORG API",
    "CREATION_DATE": "2021-12-03T17:32:05",
    "ORIGINATOR": "18 SPCS",
    "OBJECT_NAME": "EXPLORER 16",
    "OBJECT_ID": "1962-070A",
    "CENTER_NAME": "EARTH",
    "REF_FRAME": "TEME",
    "TIME_SYSTEM": "UTC",
    "MEAN_ELEMENT_THEORY": "SGP4",
    "EPOCH": "2021-12-03T10:17:34.611648",
    "MEAN_MOTION": "13.85198543",
    "ECCENTRICITY": "0.02782970",
    "INCLINATION": "52.0008",
    "RA_OF_ASC_NODE": "222.8738",
    "ARG_OF_PERICENTER": "87.6445",
    "MEAN_ANOMALY": "275.6308",
    "EPHEMERIS_TYPE": "0",
    "CLASSIFICATION_TYPE": "U",
    "NORAD_CAT_ID": "506",
    "ELEMENT_SET_NO": "999",
    "REV_AT_EPOCH": "97910",
    "BSTAR": "0.00005474100000",
    "MEAN_MOTION_DOT": "-0.00000065",
    "MEAN_MOTION_DDOT": "0.0000000000000",
    "SEMIMAJOR_AXIS": "7323.643",
    "PERIOD": "103.956",
    "APOAPSIS": "1149.323",
    "PERIAPSIS": "741.693",
    "OBJECT_TYPE": "PAYLOAD",
    "RCS_SIZE": "MEDIUM",
    "COUNTRY_CODE": "US",
    "LAUNCH_DATE": "1962-12-16",
    "SITE": "WLPIS",
    "DECAY_DATE": null,
    "FILE": "3231740",
    "GP_ID": "190989602",
    "TLE_LINE0": "0 EXPLORER 16",
    "TLE_LINE1": "1 00506U 62070A   21337.42887282 -.00000065  00000-0  54741-4 0  9990",
    "TLE_LINE2": "2 00506  52.0008 222.8738 0278297  87.6445 275.6308 13.85198543979103"
  },
  {
    "CCSDS_OMM_VERS": "2.0",
    "COMMENT": "GENERATED VIA SPACE-TRACK.ORG API",
    "CREATION_DATE": "2021-12-03T17:32:05",
    "ORIGINATOR": "18 SPCS",
    "OBJECT_NAME": "THOR AGENA B DEB",
    "OBJECT_ID": "1962-049C",
    "CENTER_NAME": "EARTH",
    "REF_FRAME": "TEME",
    "TIME_SYSTEM": "UTC",
    "MEAN_ELEMENT_THEORY": "SGP4",
    "EPOCH": "2021-12-03T13:19:14.959200",
    "MEAN_MOTION": "13.69758579",
    "ECCENTRICITY": "0.00161450",
    "INCLINATION": "80.5118",
    "RA_OF_ASC_NODE": "157.7281",
    "ARG_OF_PERICENTER": "56.7901",
    "MEAN_ANOMALY": "358.9070",
    "EPHEMERIS_TYPE": "0",
    "CLASSIFICATION_TYPE": "U",
    "NORAD_CAT_ID": "510",
    "ELEMENT_SET_NO": "999",
    "REV_AT_EPOCH": "95587",
    "BSTAR": "0.00004315000000",
    "MEAN_MOTION_DOT": "0.00000047",
    "MEAN_MOTION_DDOT": "0.0000000000000",
    "SEMIMAJOR_AXIS": "7378.575",
    "PERIOD": "105.128",
    "APOAPSIS": "1012.353",
    "PERIAPSIS": "988.527",
    "OBJECT_TYPE": "DEBRIS",
    "RCS_SIZE": "SMALL",
    "COUNTRY_CODE": "US",
    "LAUNCH_DATE": "1962-09-29",
    "SITE": "AFWTR",
    "DECAY_DATE": null,
    "FILE": "3231740",
    "GP_ID": "190989852",
    "TLE_LINE0": "0 THOR AGENA B DEB",
    "TLE_LINE1": "1 00510U 62049C   21337.55503425  .00000047  00000-0  43150-4 0  9990",
    "TLE_LINE2": "2 00510  80.5118 157.7281 0016145  56.7901 358.9070 13.69758579955873"
  },
  {
    "CCSDS_OMM_VERS": "2.0",
    "COMMENT": "GENERATED VIA SPACE-TRACK.ORG API",
    "CREATION_DATE": "2021-12-04T02:39:20",
    "ORIGINATOR": "18 SPCS",
    "OBJECT_NAME": "THOR AGENA B DEB",
    "OBJECT_ID": "1962-049D",
    "CENTER_NAME": "EARTH",
    "REF_FRAME": "TEME",
    "TIME_SYSTEM": "UTC",
    "MEAN_ELEMENT_THEORY": "SGP4",
    "EPOCH": "2021-12-03T21:38:16.255392",
    "MEAN_MOTION": "13.68256971",
    "ECCENTRICITY": "0.00306810",
    "INCLINATION": "80.4302",
    "RA_OF_ASC_NODE": "34.1676",
    "ARG_OF_PERICENTER": "276.8190",
    "MEAN_ANOMALY": "203.8467",
    "EPHEMERIS_TYPE": "0",
    "CLASSIFICATION_TYPE": "U",
    "NORAD_CAT_ID": "511",
    "ELEMENT_SET_NO": "999",
    "REV_AT_EPOCH": "95304",
    "BSTAR": "0.00005611800000",
    "MEAN_MOTION_DOT": "0.00000057",
    "MEAN_MOTION_DDOT": "0.0000000000000",
    "SEMIMAJOR_AXIS": "7383.972",
    "PERIOD": "105.243",
    "APOAPSIS": "1028.492",
    "PERIAPSIS": "983.183",
    "OBJECT_TYPE": "DEBRIS",
    "RCS_SIZE": "SMALL",
    "COUNTRY_CODE": "US",
    "LAUNCH_DATE": "1962-09-29",
    "SITE": "AFWTR",
    "DECAY_DATE": null,
    "FILE": "3231910",
    "GP_ID": "191018540",
    "TLE_LINE0": "0 THOR AGENA B DEB",
    "TLE_LINE1": "1 00511U 62049D   21337.90157703  .00000057  00000-0  56118-4 0  9993",
    "TLE_LINE2": "2 00511  80.4302  34.1676 0030681 276.8190 203.8467 13.68256971953043"
  },
  {
    "CCSDS_OMM_VERS": "2.0",
    "COMMENT": "GENERATED VIA SPACE-TRACK.ORG API",
    "CREATION_DATE": "2021-12-03T17:32:05",
    "ORIGINATOR": "18 SPCS",
    "OBJECT_NAME": "DELTA 1 R\/B",
    "OBJECT_ID": "1962-068B",
    "CENTER_NAME": "EARTH",
    "REF_FRAME": "TEME",
    "TIME_SYSTEM": "UTC",
    "MEAN_ELEMENT_THEORY": "SGP4",
    "EPOCH": "2021-12-03T07:42:20.440224",
    "MEAN_MOTION": "7.79250787",
    "ECCENTRICITY": "0.28430800",
    "INCLINATION": "47.5167",
    "RA_OF_ASC_NODE": "323.1538",
    "ARG_OF_PERICENTER": "65.1103",
    "MEAN_ANOMALY": "321.7390",
    "EPHEMERIS_TYPE": "0",
    "CLASSIFICATION_TYPE": "U",
    "NORAD_CAT_ID": "515",
    "ELEMENT_SET_NO": "999",
    "REV_AT_EPOCH": "67868",
    "BSTAR": "0.00000000000000",
    "MEAN_MOTION_DOT": "-0.00000032",
    "MEAN_MOTION_DDOT": "0.0000000000000",
    "SEMIMAJOR_AXIS": "10746.912",
    "PERIOD": "184.793",
    "APOAPSIS": "7424.209",
    "PERIAPSIS": "1313.344",
    "OBJECT_TYPE": "ROCKET BODY",
    "RCS_SIZE": "MEDIUM",
    "COUNTRY_CODE": "US",
    "LAUNCH_DATE": "1962-12-13",
    "SITE": "AFETR",
    "DECAY_DATE": null,
    "FILE": "3231740",
    "GP_ID": "190990854",
    "TLE_LINE0": "0 DELTA 1 R\/B",
    "TLE_LINE1": "1 00515U 62068B   21337.32106991 -.00000032  00000-0  00000-0 0  9996",
    "TLE_LINE2": "2 00515  47.5167 323.1538 2843080  65.1103 321.7390  7.79250787678681"
  },
  {
    "CCSDS_OMM_VERS": "2.0",
    "COMMENT": "GENERATED VIA SPACE-TRACK.ORG API",
    "CREATION_DATE": "2021-12-04T06:56:11",
    "ORIGINATOR": "18 SPCS",
    "OBJECT_NAME": "THOR ABLESTAR DEB",
    "OBJECT_ID": "1961-015FT",
    "CENTER_NAME": "EARTH",
    "REF_FRAME": "TEME",
    "TIME_SYSTEM": "UTC",
    "MEAN_ELEMENT_THEORY": "SGP4",
    "EPOCH": "2021-12-04T05:06:01.722816",
    "MEAN_MOTION": "13.91409618",
    "ECCENTRICITY": "0.00899910",
    "INCLINATION": "65.9942",
    "RA_OF_ASC_NODE": "11.4560",
    "ARG_OF_PERICENTER": "309.0656",
    "MEAN_ANOMALY": "50.2433",
    "EPHEMERIS_TYPE": "0",
    "CLASSIFICATION_TYPE": "U",
    "NORAD_CAT_ID": "516",
    "ELEMENT_SET_NO": "999",
    "REV_AT_EPOCH": "5840",
    "BSTAR": "0.00002146300000",
    "MEAN_MOTION_DOT": "-0.00000055",
    "MEAN_MOTION_DDOT": "0.0000000000000",
    "SEMIMAJOR_AXIS": "7301.832",
    "PERIOD": "103.492",
    "APOAPSIS": "989.407",
    "PERIAPSIS": "857.987",
    "OBJECT_TYPE": "DEBRIS",
    "RCS_SIZE": "MEDIUM",
    "COUNTRY_CODE": "US",
    "LAUNCH_DATE": "1961-06-29",
    "SITE": "AFETR",
    "DECAY_DATE": null,
    "FILE": "3232076",
    "GP_ID": "191044189",
    "TLE_LINE0": "0 THOR ABLESTAR DEB",
    "TLE_LINE1": "1   516U 61015FT  21338.21251994 -.00000055  00000-0  21463-4 0  9996",
    "TLE_LINE2": "2   516  65.9942  11.4560 0089991 309.0656  50.2433 13.91409618 58407"
  },
  {
    "CCSDS_OMM_VERS": "2.0",
    "COMMENT": "GENERATED VIA SPACE-TRACK.ORG API",
    "CREATION_DATE": "2021-12-03T17:32:05",
    "ORIGINATOR": "18 SPCS",
    "OBJECT_NAME": "THOR ABLESTAR DEB",
    "OBJECT_ID": "1961-015FU",
    "CENTER_NAME": "EARTH",
    "REF_FRAME": "TEME",
    "TIME_SYSTEM": "UTC",
    "MEAN_ELEMENT_THEORY": "SGP4",
    "EPOCH": "2021-12-03T10:54:33.757632",
    "MEAN_MOTION": "13.98363698",
    "ECCENTRICITY": "0.00862830",
    "INCLINATION": "66.8801",
    "RA_OF_ASC_NODE": "93.9196",
    "ARG_OF_PERICENTER": "285.4265",
    "MEAN_ANOMALY": "73.7299",
    "EPHEMERIS_TYPE": "0",
    "CLASSIFICATION_TYPE": "U",
    "NORAD_CAT_ID": "530",
    "ELEMENT_SET_NO": "999",
    "REV_AT_EPOCH": "7590",
    "BSTAR": "0.00004380600000",
    "MEAN_MOTION_DOT": "-0.00000013",
    "MEAN_MOTION_DDOT": "0.0000000000000",
    "SEMIMAJOR_AXIS": "7277.604",
    "PERIOD": "102.978",
    "APOAPSIS": "962.262",
    "PERIAPSIS": "836.676",
    "OBJECT_TYPE": "DEBRIS",
    "RCS_SIZE": "SMALL",
    "COUNTRY_CODE": "US",
    "LAUNCH_DATE": "1961-06-29",
    "SITE": "AFETR",
    "DECAY_DATE": null,
    "FILE": "3231740",
    "GP_ID": "190990352",
    "TLE_LINE0": "0 THOR ABLESTAR DEB",
    "TLE_LINE1": "1 00530U 61015FU  21337.45455738 -.00000013  00000-0  43806-4 0  9998",
    "TLE_LINE2": "2 00530  66.8801  93.9196 0086283 285.4265  73.7299 13.98363698 75909"
  }
]
